[{"OBJECT_NAME":"STARLINK-4531","OBJECT_ID":"2022-097AP","EPOCH":"2026-03-09T09:42:01.708416","MEAN_MOTION":15.08839307,"ECCENTRICITY":0.00014626,"INCLINATION":53.2169,"RA_OF_ASC_NODE":115.4028,"ARG_OF_PERICENTER":94.1137,"MEAN_ANOMALY":266.0022,"EPHEMERIS_TYPE":0,"CLASSIFICATION_TYPE":"U","NORAD_CAT_ID":53425,"ELEMENT_SET_NO":999,"REV_AT_EPOCH":19857,"BSTAR":-4.0038341e-5,"MEAN_MOTION_DOT":-9.25e-6,"MEAN_MOTION_DDOT":0},{"OBJECT_NAME":"JILIN-01 KUANFU 02B 1","OBJECT_ID":"2024-169A","EPOCH":"2026-03-09T22:23:47.298048","MEAN_MOTION":15.0926333,"ECCENTRICITY":0.00080135,"INCLINATION":97.5562,"RA_OF_ASC_NODE":159.9206,"ARG_OF_PERICENTER":20.9587,"MEAN_ANOMALY":339.1969,"EPHEMERIS_TYPE":0,"CLASSIFICATION_TYPE":"U","NORAD_CAT_ID":61189,"ELEMENT_SET_NO":999,"REV_AT_EPOCH":8085,"BSTAR":0.00041363535,"MEAN_MOTION_DOT":6.529e-5,"MEAN_MOTION_DDOT":0}]
